{
  "type": "FeatureCollection",
  "features": [
    {
      "type": "Feature",
      "properties": {
        "norad_id": 64751,
        "name": "PROGRESS-MS 31",
        "group": "stations",
        "lat": 36.82939333383184,
        "lon": -174.75978401769098,
        "alt_km": 415.5364693148849,
        "timestamp": "2025-12-11T10:53:14.641419+00:00",
        "meta_object_name": "PROGRESS-MS 31",
        "meta_object_id": "2025-146A",
        "meta_epoch": "2025-12-10T22:17:24.112320",
        "meta_mean_motion": 15.49489378,
        "meta_eccentricity": 0.00033509,
        "meta_inclination": 51.6309,
        "meta_ra_of_asc_node": 151.4463,
        "meta_arg_of_pericenter": 232.8214,
        "meta_mean_anomaly": 127.2469,
        "meta_ephemeris_type": 0,
        "meta_classification_type": "U",
        "meta_norad_cat_id": 64751,
        "meta_element_set_no": 999,
        "meta_rev_at_epoch": 675,
        "meta_bstar": 0.00026508679,
        "meta_mean_motion_dot": 0.00014434,
        "meta_mean_motion_ddot": 0,
        "tle_line1": "1 64751U 25146A   25344.92875130  .00014434  00000+0  26509-3 0  9994",
        "tle_line2": "2 64751  51.6309 151.4463 0003350 232.8214 127.2469 15.49489378  6753"
      },
      "geometry": {
        "type": "Point",
        "coordinates": [
          -174.75978401769098,
          36.82939333383184
        ]
      }
    },
    {
      "type": "Feature",
      "properties": {
        "norad_id": 64786,
        "name": "TIANZHOU-9",
        "group": "stations",
        "lat": 37.533578207336134,
        "lon": 144.0609351134829,
        "alt_km": 384.4875797823115,
        "timestamp": "2025-12-11T10:53:14.641464+00:00",
        "meta_object_name": "TIANZHOU-9",
        "meta_object_id": "2025-149A",
        "meta_epoch": "2025-12-10T20:34:09.975360",
        "meta_mean_motion": 15.59054125,
        "meta_eccentricity": 0.0008705,
        "meta_inclination": 41.4684,
        "meta_ra_of_asc_node": 28.1364,
        "meta_arg_of_pericenter": 14.9689,
        "meta_mean_anomaly": 345.1405,
        "meta_ephemeris_type": 0,
        "meta_classification_type": "U",
        "meta_norad_cat_id": 64786,
        "meta_element_set_no": 999,
        "meta_rev_at_epoch": 25530,
        "meta_bstar": 0.00042990708,
        "meta_mean_motion_dot": 0.0003436,
        "meta_mean_motion_ddot": 0,
        "tle_line1": "1 64786U 25149A   25344.85705990  .00034360  00000+0  42991-3 0  9996",
        "tle_line2": "2 64786  41.4684  28.1364 0008705  14.9689 345.1405 15.59054125255305"
      },
      "geometry": {
        "type": "Point",
        "coordinates": [
          144.0609351134829,
          37.533578207336134
        ]
      }
    },
    {
      "type": "Feature",
      "properties": {
        "norad_id": 65077,
        "name": "CREW DRAGON 11",
        "group": "stations",
        "lat": 36.829395617925535,
        "lon": -174.7597805119325,
        "alt_km": 415.5364689645685,
        "timestamp": "2025-12-11T10:53:14.641475+00:00",
        "meta_object_name": "CREW DRAGON 11",
        "meta_object_id": "2025-166A",
        "meta_epoch": "2025-12-10T22:17:24.112320",
        "meta_mean_motion": 15.49489378,
        "meta_eccentricity": 0.00033509,
        "meta_inclination": 51.6309,
        "meta_ra_of_asc_node": 151.4463,
        "meta_arg_of_pericenter": 232.8214,
        "meta_mean_anomaly": 127.2469,
        "meta_ephemeris_type": 0,
        "meta_classification_type": "U",
        "meta_norad_cat_id": 65077,
        "meta_element_set_no": 999,
        "meta_rev_at_epoch": 214,
        "meta_bstar": 0.00026508679,
        "meta_mean_motion_dot": 0.00014434,
        "meta_mean_motion_ddot": 0,
        "tle_line1": "1 65077U 25166A   25344.92875130  .00014434  00000+0  26509-3 0  9998",
        "tle_line2": "2 65077  51.6309 151.4463 0003350 232.8214 127.2469 15.49489378  2144"
      },
      "geometry": {
        "type": "Point",
        "coordinates": [
          -174.7597805119325,
          36.829395617925535
        ]
      }
    },
    {
      "type": "Feature",
      "properties": {
        "norad_id": 65304,
        "name": "DRAGON CRS-33",
        "group": "stations",
        "lat": 36.82939618894915,
        "lon": -174.75977963549258,
        "alt_km": 415.5364688769905,
        "timestamp": "2025-12-11T10:53:14.641489+00:00",
        "meta_object_name": "DRAGON CRS-33",
        "meta_object_id": "2025-186A",
        "meta_epoch": "2025-12-10T22:17:24.112320",
        "meta_mean_motion": 15.49489378,
        "meta_eccentricity": 0.00033509,
        "meta_inclination": 51.6309,
        "meta_ra_of_asc_node": 151.4463,
        "meta_arg_of_pericenter": 232.8214,
        "meta_mean_anomaly": 127.2469,
        "meta_ephemeris_type": 0,
        "meta_classification_type": "U",
        "meta_norad_cat_id": 65304,
        "meta_element_set_no": 999,
        "meta_rev_at_epoch": 11,
        "meta_bstar": 0.00026508679,
        "meta_mean_motion_dot": 0.00014434,
        "meta_mean_motion_ddot": 0,
        "tle_line1": "1 65304U 25186A   25344.92875130  .00014434  00000+0  26509-3 0  9993",
        "tle_line2": "2 65304  51.6309 151.4463 0003350 232.8214 127.2469 15.49489378   112"
      },
      "geometry": {
        "type": "Point",
        "coordinates": [
          -174.75977963549258,
          36.82939618894915
        ]
      }
    },
    {
      "type": "Feature",
      "properties": {
        "norad_id": 65586,
        "name": "PROGRESS-MS 32",
        "group": "stations",
        "lat": 36.829396719184736,
        "lon": -174.75977882165643,
        "alt_km": 415.53646879566713,
        "timestamp": "2025-12-11T10:53:14.641502+00:00",
        "meta_object_name": "PROGRESS-MS 32",
        "meta_object_id": "2025-204A",
        "meta_epoch": "2025-12-10T22:17:24.112320",
        "meta_mean_motion": 15.49489378,
        "meta_eccentricity": 0.00033509,
        "meta_inclination": 51.6309,
        "meta_ra_of_asc_node": 151.4463,
        "meta_arg_of_pericenter": 232.8214,
        "meta_mean_anomaly": 127.2469,
        "meta_ephemeris_type": 0,
        "meta_classification_type": "U",
        "meta_norad_cat_id": 65586,
        "meta_element_set_no": 999,
        "meta_rev_at_epoch": 27,
        "meta_bstar": 0.00026508679,
        "meta_mean_motion_dot": 0.00014434,
        "meta_mean_motion_ddot": 0,
        "tle_line1": "1 65586U 25204A   25344.92875130  .00014434  00000+0  26509-3 0  9996",
        "tle_line2": "2 65586  51.6309 151.4463 0003350 232.8214 127.2469 15.49489378   271"
      },
      "geometry": {
        "type": "Point",
        "coordinates": [
          -174.75977882165643,
          36.829396719184736
        ]
      }
    },
    {
      "type": "Feature",
      "properties": {
        "norad_id": 65616,
        "name": "CYGNUS NG-23",
        "group": "stations",
        "lat": 36.82939724942131,
        "lon": -174.7597780078187,
        "alt_km": 415.53646871434375,
        "timestamp": "2025-12-11T10:53:14.641515+00:00",
        "meta_object_name": "CYGNUS NG-23",
        "meta_object_id": "2025-208A",
        "meta_epoch": "2025-12-10T22:17:24.112320",
        "meta_mean_motion": 15.49489378,
        "meta_eccentricity": 0.00033509,
        "meta_inclination": 51.6309,
        "meta_ra_of_asc_node": 151.4463,
        "meta_arg_of_pericenter": 232.8214,
        "meta_mean_anomaly": 127.2469,
        "meta_ephemeris_type": 0,
        "meta_classification_type": "U",
        "meta_norad_cat_id": 65616,
        "meta_element_set_no": 999,
        "meta_rev_at_epoch": 22,
        "meta_bstar": 0.00026508679,
        "meta_mean_motion_dot": 0.00014434,
        "meta_mean_motion_ddot": 0,
        "tle_line1": "1 65616U 25208A   25344.92875130  .00014434  00000+0  26509-3 0  9994",
        "tle_line2": "2 65616  51.6309 151.4463 0003350 232.8214 127.2469 15.49489378   220"
      },
      "geometry": {
        "type": "Point",
        "coordinates": [
          -174.7597780078187,
          36.82939724942131
        ]
      }
    },
    {
      "type": "Feature",
      "properties": {
        "norad_id": 65729,
        "name": "DRAGONFLY",
        "group": "stations",
        "lat": -49.04638337392432,
        "lon": 76.40702805724057,
        "alt_km": 355.4629381916602,
        "timestamp": "2025-12-11T10:53:14.641527+00:00",
        "meta_object_name": "DRAGONFLY",
        "meta_object_id": "1998-067XH",
        "meta_epoch": "2025-12-11T03:34:16.542048",
        "meta_mean_motion": 15.71180147,
        "meta_eccentricity": 0.0006575,
        "meta_inclination": 51.6246,
        "meta_ra_of_asc_node": 143.9077,
        "meta_arg_of_pericenter": 266.7325,
        "meta_mean_anomaly": 93.2921,
        "meta_ephemeris_type": 0,
        "meta_classification_type": "U",
        "meta_norad_cat_id": 65729,
        "meta_element_set_no": 999,
        "meta_rev_at_epoch": 1291,
        "meta_bstar": 0.0016713,
        "meta_mean_motion_dot": 0.00221047,
        "meta_mean_motion_ddot": 0,
        "tle_line1": "1 65729U 98067XH  25345.14880257  .00221047  00000+0  16713-2 0  9998",
        "tle_line2": "2 65729  51.6246 143.9077 0006575 266.7325  93.2921 15.71180147 12914"
      },
      "geometry": {
        "type": "Point",
        "coordinates": [
          76.40702805724057,
          -49.04638337392432
        ]
      }
    }
  ]
}